1 39741U 14026A   21077.92168715 -.00000052  00000-0  00000-0 0  9991
2 39741  56.3316  46.0186 0025290 298.2364  61.4990  2.00557832 50104
1 39741U 14026A   21078.42028656 -.00000049  00000-0  00000-0 0  9992
2 39741  56.3319  45.9991 0025288 298.2668  61.4698  2.00557781 50112
1 39741U 14026A   21080.41468176 -.00000039  00000-0  00000-0 0  9998
2 39741  56.3331  45.9210 0025284 298.3880  61.3520  2.00557620 50152
1 39741U 14026A   21081.41188056 -.00000036  00000-0  00000-0 0  9992
2 39741  56.3337  45.8819 0025276 298.4374  61.3032  2.00557463 50177
1 39741U 14026A   21082.90767372 -.00000035  00000-0  00000-0 0  9990
2 39741  56.3346  45.8233 0025266 298.5429  61.1967  2.00557326 50205
1 39741U 14026A   21084.90206035 -.00000037  00000-0  00000-0 0  9998
2 39741  56.3359  45.7452 0025257 298.6447  61.0904  2.00557182 50246
1 39741U 14026A   21086.39785210 -.00000042  00000-0  00000-0 0  9996
2 39741  56.3368  45.6866 0025244 298.7264  61.0049  2.00557035 50278
1 39741U 14026A   21087.39504957 -.00000045  00000-0  00000+0 0  9996
2 39741  56.3377  45.6475 0025207 298.8488  60.8809  2.00556943 50281
1 39741U 14026A   21087.39504957 -.00000045  00000-0  00000-0 0  9997
2 39741  56.3377  45.6475 0025207 298.8488  60.8809  2.00556943 50281
1 39741U 14026A   21089.38944688 -.00000051  00000-0  00000-0 0  9994
2 39741  56.3395  45.5694 0025176 298.9636  60.7654  2.00556752 50335
1 39741U 14026A   21091.38385060 -.00000055  00000-0  00000-0 0  9994
2 39741  56.3407  45.4913 0025134 299.1176  60.6143  2.00556595 50379
1 39741U 14026A   21092.38105311 -.00000057  00000-0  00000-0 0  9996
2 39741  56.3413  45.4523 0025125 299.1472  60.5861  2.00556547 50397
1 39741U 14026A   21093.37825469 -.00000060  00000-0  00000-0 0  9993
2 39741  56.3418  45.4132 0025107 299.2278  60.5064  2.00556511 50412
1 39741U 14026A   21093.87685563 -.00000061  00000-0  00000-0 0  9998
2 39741  56.3421  45.3937 0025100 299.2669  60.4675  2.00556477 50424
1 39741U 14026A   21096.36985542 -.00000074  00000-0  00000+0 0  9998
2 39741  56.3436  45.2961 0025048 299.4141  60.3179  2.00556384 50463
1 39741U 14026A   21096.36985542 -.00000074  00000-0  00000-0 0  9999
2 39741  56.3436  45.2961 0025048 299.4141  60.3179  2.00556384 50474
1 39741U 14026A   21097.36705541 -.00000080  00000-0  00000-0 0  9996
2 39741  56.3439  45.2570 0025040 299.4672  60.2631  2.00556325 50493
1 39741U 14026A   21099.36145672 -.00000088  00000-0  00000-0 0  9999
2 39741  56.3445  45.1790 0024998 299.5553  60.1728  2.00556265 50537
1 39741U 14026A   21099.86005805 -.00000089  00000-0  00000-0 0  9998
2 39741  56.3450  45.1595 0024983 299.5626  60.1654  2.00556245 50548
1 39741U 14026A   21101.35586496 -.00000089  00000-0  00000-0 0  9996
2 39741  56.3458  45.1010 0024951 299.6622  60.0672  2.00556170 50579
1 39741U 14026A   21101.85446758 -.00000088  00000-0  00000-0 0  9996
2 39741  56.3456  45.0816 0024961 299.7386  59.9918  2.00556163 50571
1 39741U 14026A   21103.84888308 -.00000079  00000-0  00000-0 0  9998
2 39741  56.3467  45.0036 0024926 299.8381  59.8980  2.00556033 50624
1 39741U 14026A   21105.34469666 -.00000070  00000-0  00000-0 0  9998
2 39741  56.3475  44.9451 0024905 299.9165  59.8250  2.00555931 50659
1 39741U 14026A   21106.34190656 -.00000065  00000-0  00000-0 0  9993
2 39741  56.3480  44.9061 0024888 299.9661  59.7789  2.00555836 50664
1 39741U 14026A   21107.33911613 -.00000060  00000-0  00000-0 0  9992
2 39741  56.3486  44.8671 0024869 300.0173  59.7307  2.00555738 50697
1 39741U 14026A   21108.33632490 -.00000057  00000-0  00000-0 0  9992
2 39741  56.3491  44.8281 0024849 300.0715  59.6787  2.00555637 50712
1 39741U 14026A   21109.33353241 -.00000055  00000-0  00000-0 0  9995
2 39741  56.3497  44.7890 0024829 300.1217  59.6298  2.00555548 50728
1 39741U 14026A   21110.33073899 -.00000054  00000-0  00000-0 0  9994
2 39741  56.3502  44.7500 0024809 300.1713  59.5806  2.00555445 50755
1 39741U 14026A   21110.82934230 -.00000055  00000-0  00000-0 0  9994
2 39741  56.3505  44.7305 0024798 300.1927  59.5589  2.00555409 50764
1 39741U 14026A   21112.32515020 -.00000057  00000-0  00000-0 0  9995
2 39741  56.3513  44.6719 0024768 300.2604  59.4897  2.00555249 50797
1 39741U 14026A   21112.82375301 -.00000058  00000-0  00000-0 0  9997
2 39741  56.3516  44.6524 0024757 300.2766  59.4728  2.00555199 50800
1 39741U 14026A   21114.31956295 -.00000062  00000-0  00000-0 0  9995
2 39741  56.3524  44.5938 0024722 300.3409  59.4072  2.00555051 50836
1 39741U 14026A   21117.31119326 -.00000070  00000-0  00000+0 0  9992
2 39741  56.3541  44.4766 0024648 300.4789  59.2725  2.00554812 50884
1 39741U 14026A   21117.31119326 -.00000070  00000-0  00000-0 0  9993
2 39741  56.3541  44.4766 0024648 300.4789  59.2725  2.00554812 50895
1 39741U 14026A   21120.30283305 -.00000075  00000-0  00000+0 0  9999
2 39741  56.3558  44.3595 0024551 300.6359  59.1234  2.00554469 50948
1 39741U 14026A   21120.30283305 -.00000075  00000-0  00000-0 0  9990
2 39741  56.3558  44.3595 0024551 300.6359  59.1234  2.00554469 50959
